SENTINEL-6              
1 46984U 20086A   23341.14984169 -.00000057  00000+0  16869-4 0  9998
2 46984  66.0412 252.2084 0007804 269.4319  90.5802 12.80928673142230
